{
  "type": "FeatureCollection",
  "features": [
    {
      "type": "Feature",
      "properties": { "region": "california" },
      "geometry": {
        "type": "Polygon",
        "coordinates": [
          [
            [-124.4, 42.0],
            [-120.0, 42.0],
            [-120.0, 39.0],
            [-119.5, 38.0],
            [-114.6, 35.0],
            [-114.5, 32.6],
            [-114.65, 32.535],
            [-117.13, 32.535],
            [-118.5, 33.8],
            [-120.5, 34.5],
            [-121.9, 36.0],
            [-122.5, 37.8],
            [-123.7, 39.0],
            [-124.4, 42.0]
          ]
        ]
      }
    }
  ]
}
