{
  "type": "FeatureCollection",
  "features": [
    {
      "type": "Feature",
      "properties": { "region": "newYork" },
      "geometry": {
        "type": "Polygon",
        "coordinates": [
          [
            [-74.69, 45.01],
            [-73.34, 45.01],
            [-73.43, 43.6],
            [-73.27, 42.73],
            [-73.50, 42.05],
            [-73.48, 41.21],
            [-71.85, 41.0],
            [-72.5, 40.55],
            [-73.85, 40.55],
            [-74.02, 40.7],
            [-74.0, 41.0],
            [-74.7, 41.36],
            [-75.36, 41.99],
            [-79.76, 41.99],
            [-79.76, 42.52],
            [-78.92, 42.86],
            [-79.07, 43.25],
            [-78.0, 43.55],
            [-76.5, 44.0],
            [-74.69, 45.01]
          ]
        ]
      }
    }
  ]
}
