{"type":"FeatureCollection","features":[{"type":"Feature","properties":{"region":"canada","name":"Canada"},"geometry":{"type":"Polygon","coordinates":[[[-141.0,60.0],[-141.0,69.6],[-105.0,73.0],[-70.0,60.0],[-57.0,53.0],[-53.0,47.0],[-60.0,45.0],[-67.0,45.0],[-67.8,45.3],[-69.0,47.5],[-71.5,45.0],[-74.5,45.0],[-76.5,44.2],[-77.0,43.5],[-78.0,43.4],[-79.0,43.3],[-79.05,43.0],[-79.1,42.5],[-82.5,42.0],[-83.0,42.3],[-82.5,42.7],[-82.5,45.5],[-84.4,46.5],[-88.0,48.0],[-95.2,49.0],[-123.0,49.0],[-123.5,50.0],[-130.3,54.6],[-141.0,60.0]]]}}]}
