{"type":"FeatureCollection","features":[{"type":"Feature","properties":{"region":"european-union","name":"European Union"},"geometry":{"type":"Polygon","coordinates":[[[-5.0,48.5],[1.0,50.5],[3.5,51.3],[6.0,53.5],[8.5,54.5],[9.5,57.5],[16.5,58.5],[20.0,63.5],[23.0,66.0],[28.0,70.0],[30.5,67.5],[30.5,60.5],[28.0,57.0],[24.0,54.0],[24.0,50.5],[23.0,47.0],[28.5,45.0],[28.0,42.0],[26.5,40.5],[23.5,35.5],[21.0,36.5],[18.5,40.5],[15.0,36.7],[8.5,38.0],[7.0,43.5],[2.5,41.5],[-0.5,38.5],[-5.5,36.0],[-9.0,37.0],[-9.5,42.5],[-1.5,43.8],[-1.5,46.0],[-5.0,48.5]]]}}]}
